{
  "type": "FeatureCollection",
  "features": [
    {
      "type": "Feature",
      "properties": {
        "norad_id": 40238,
        "name": "COSMOS 2251 DEB",
        "group": "cosmos-2251-debris",
        "lat": -53.68637804011707,
        "lon": -82.76691526698302,
        "alt_km": 1580.5472765504328,
        "timestamp": "2025-12-05T19:30:25.965435+00:00",
        "meta_object_name": "COSMOS 2251 DEB",
        "meta_object_id": "1993-036BVT",
        "meta_epoch": "2025-12-04T13:20:38.533056",
        "meta_mean_motion": 13.25091202,
        "meta_eccentricity": 0.0549745,
        "meta_inclination": 73.9885,
        "meta_ra_of_asc_node": 76.1652,
        "meta_arg_of_pericenter": 49.7266,
        "meta_mean_anomaly": 315.0566,
        "meta_ephemeris_type": 0,
        "meta_classification_type": "U",
        "meta_norad_cat_id": 40238,
        "meta_element_set_no": 999,
        "meta_rev_at_epoch": 53928,
        "meta_bstar": 0.0023519,
        "meta_mean_motion_dot": 2.29e-05,
        "meta_mean_motion_ddot": 0,
        "tle_line1": "1 40238U 93036BVT 25338.55600154  .00002290  00000+0  23519-2 0  9999",
        "tle_line2": "2 40238  73.9885  76.1652 0549745  49.7266 315.0566 13.25091202539282"
      },
      "geometry": {
        "type": "Point",
        "coordinates": [
          -82.76691526698302,
          -53.68637804011707
        ]
      }
    },
    {
      "type": "Feature",
      "properties": {
        "norad_id": 40239,
        "name": "COSMOS 2251 DEB",
        "group": "cosmos-2251-debris",
        "lat": -52.87220911156798,
        "lon": 131.3260347682703,
        "alt_km": 751.5236413433213,
        "timestamp": "2025-12-05T19:30:25.965445+00:00",
        "meta_object_name": "COSMOS 2251 DEB",
        "meta_object_id": "1993-036BVU",
        "meta_epoch": "2025-12-03T04:06:23.351040",
        "meta_mean_motion": 14.61919535,
        "meta_eccentricity": 0.00844774,
        "meta_inclination": 74.0313,
        "meta_ra_of_asc_node": 294.1581,
        "meta_arg_of_pericenter": 48.0204,
        "meta_mean_anomaly": 330.7965,
        "meta_ephemeris_type": 0,
        "meta_classification_type": "U",
        "meta_norad_cat_id": 40239,
        "meta_element_set_no": 999,
        "meta_rev_at_epoch": 59471,
        "meta_bstar": 0.00063426596,
        "meta_mean_motion_dot": 3.31e-05,
        "meta_mean_motion_ddot": 0,
        "tle_line1": "1 40239U 93036BVU 25337.17110360  .00003310  00000+0  63427-3 0  9999",
        "tle_line2": "2 40239  74.0313 294.1581 0084477  48.0204 330.7965 14.61919535594719"
      },
      "geometry": {
        "type": "Point",
        "coordinates": [
          131.3260347682703,
          -52.87220911156798
        ]
      }
    },
    {
      "type": "Feature",
      "properties": {
        "norad_id": 40792,
        "name": "COSMOS 2251 DEB",
        "group": "cosmos-2251-debris",
        "lat": -72.31109616849739,
        "lon": -55.40522112712925,
        "alt_km": 677.092503948059,
        "timestamp": "2025-12-05T19:30:25.965456+00:00",
        "meta_object_name": "COSMOS 2251 DEB",
        "meta_object_id": "1993-036BVV",
        "meta_epoch": "2025-12-03T22:41:09.153312",
        "meta_mean_motion": 14.67400307,
        "meta_eccentricity": 0.00162419,
        "meta_inclination": 74.0452,
        "meta_ra_of_asc_node": 64.429,
        "meta_arg_of_pericenter": 171.5941,
        "meta_mean_anomaly": 308.7742,
        "meta_ephemeris_type": 0,
        "meta_classification_type": "U",
        "meta_norad_cat_id": 40792,
        "meta_element_set_no": 999,
        "meta_rev_at_epoch": 63055,
        "meta_bstar": 0.0023973164,
        "meta_mean_motion_dot": 0.0001358,
        "meta_mean_motion_ddot": 0,
        "tle_line1": "1 40792U 93036BVV 25337.94524483  .00013580  00000+0  23973-2 0  9994",
        "tle_line2": "2 40792  74.0452  64.4290 0016241 171.5941 308.7742 14.67400307630555"
      },
      "geometry": {
        "type": "Point",
        "coordinates": [
          -55.40522112712925,
          -72.31109616849739
        ]
      }
    },
    {
      "type": "Feature",
      "properties": {
        "norad_id": 40793,
        "name": "COSMOS 2251 DEB",
        "group": "cosmos-2251-debris",
        "lat": -41.009280572385784,
        "lon": 162.80631004361732,
        "alt_km": 731.6379699849622,
        "timestamp": "2025-12-05T19:30:25.965466+00:00",
        "meta_object_name": "COSMOS 2251 DEB",
        "meta_object_id": "1993-036BVW",
        "meta_epoch": "2025-11-17T22:59:08.433600",
        "meta_mean_motion": 14.0559149,
        "meta_eccentricity": 0.02150611,
        "meta_inclination": 73.9793,
        "meta_ra_of_asc_node": 208.5839,
        "meta_arg_of_pericenter": 10.058,
        "meta_mean_anomaly": 350.4754,
        "meta_ephemeris_type": 0,
        "meta_classification_type": "U",
        "meta_norad_cat_id": 40793,
        "meta_element_set_no": 999,
        "meta_rev_at_epoch": 67897,
        "meta_bstar": 0.0015211732,
        "meta_mean_motion_dot": 3.024e-05,
        "meta_mean_motion_ddot": 0,
        "tle_line1": "1 40793U 93036BVW 25321.95773650  .00003024  00000+0  15212-2 0  9990",
        "tle_line2": "2 40793  73.9793 208.5839 0215061  10.0580 350.4754 14.05591490678970"
      },
      "geometry": {
        "type": "Point",
        "coordinates": [
          162.80631004361732,
          -41.009280572385784
        ]
      }
    },
    {
      "type": "Feature",
      "properties": {
        "norad_id": 40794,
        "name": "COSMOS 2251 DEB",
        "group": "cosmos-2251-debris",
        "lat": 34.0621471665507,
        "lon": 149.41180702520262,
        "alt_km": 595.7214623498767,
        "timestamp": "2025-12-05T19:30:25.965476+00:00",
        "meta_object_name": "COSMOS 2251 DEB",
        "meta_object_id": "1993-036BVX",
        "meta_epoch": "2025-11-30T04:39:36.279360",
        "meta_mean_motion": 14.91253423,
        "meta_eccentricity": 0.00103638,
        "meta_inclination": 73.9758,
        "meta_ra_of_asc_node": 149.5129,
        "meta_arg_of_pericenter": 264.0956,
        "meta_mean_anomaly": 215.1976,
        "meta_ephemeris_type": 0,
        "meta_classification_type": "U",
        "meta_norad_cat_id": 40794,
        "meta_element_set_no": 999,
        "meta_rev_at_epoch": 61737,
        "meta_bstar": 0.0047311798,
        "meta_mean_motion_dot": 0.00047418,
        "meta_mean_motion_ddot": 0,
        "tle_line1": "1 40794U 93036BVX 25334.19416990  .00047418  00000+0  47312-2 0  9993",
        "tle_line2": "2 40794  73.9758 149.5129 0010363 264.0956 215.1976 14.91253423617370"
      },
      "geometry": {
        "type": "Point",
        "coordinates": [
          149.41180702520262,
          34.0621471665507
        ]
      }
    },
    {
      "type": "Feature",
      "properties": {
        "norad_id": 40796,
        "name": "COSMOS 2251 DEB",
        "group": "cosmos-2251-debris",
        "lat": -10.81755799285323,
        "lon": 152.75055156756645,
        "alt_km": 606.1074313638519,
        "timestamp": "2025-12-05T19:30:25.965486+00:00",
        "meta_object_name": "COSMOS 2251 DEB",
        "meta_object_id": "1993-036BVZ",
        "meta_epoch": "2025-12-02T06:27:45.283968",
        "meta_mean_motion": 14.81470556,
        "meta_eccentricity": 0.005597,
        "meta_inclination": 74.0116,
        "meta_ra_of_asc_node": 162.895,
        "meta_arg_of_pericenter": 301.3277,
        "meta_mean_anomaly": 235.9171,
        "meta_ephemeris_type": 0,
        "meta_classification_type": "U",
        "meta_norad_cat_id": 40796,
        "meta_element_set_no": 999,
        "meta_rev_at_epoch": 76003,
        "meta_bstar": 0.00090141,
        "meta_mean_motion_dot": 7.227e-05,
        "meta_mean_motion_ddot": 0,
        "tle_line1": "1 40796U 93036BVZ 25336.26927412  .00007227  00000+0  90141-3 0  9994",
        "tle_line2": "2 40796  74.0116 162.8950 0055970 301.3277 235.9171 14.81470556760032"
      },
      "geometry": {
        "type": "Point",
        "coordinates": [
          152.75055156756645,
          -10.81755799285323
        ]
      }
    },
    {
      "type": "Feature",
      "properties": {
        "norad_id": 40797,
        "name": "COSMOS 2251 DEB",
        "group": "cosmos-2251-debris",
        "lat": 37.22511628453729,
        "lon": 122.39639565159901,
        "alt_km": 483.73761327395914,
        "timestamp": "2025-12-05T19:30:25.965497+00:00",
        "meta_object_name": "COSMOS 2251 DEB",
        "meta_object_id": "1993-036BWA",
        "meta_epoch": "2025-11-19T18:43:16.602528",
        "meta_mean_motion": 15.10509474,
        "meta_eccentricity": 0.00703947,
        "meta_inclination": 73.92,
        "meta_ra_of_asc_node": 143.0892,
        "meta_arg_of_pericenter": 60.6639,
        "meta_mean_anomaly": 300.156,
        "meta_ephemeris_type": 0,
        "meta_classification_type": "U",
        "meta_norad_cat_id": 40797,
        "meta_element_set_no": 999,
        "meta_rev_at_epoch": 64297,
        "meta_bstar": 0.00072810385,
        "meta_mean_motion_dot": 0.00012707,
        "meta_mean_motion_ddot": 0,
        "tle_line1": "1 40797U 93036BWA 25323.78005327  .00012707  00000+0  72810-3 0  9992",
        "tle_line2": "2 40797  73.9200 143.0892 0070394  60.6639 300.1560 15.10509474642979"
      },
      "geometry": {
        "type": "Point",
        "coordinates": [
          122.39639565159901,
          37.22511628453729
        ]
      }
    }
  ]
}